{"type":"FeatureCollection","features":[{"type":"Feature","properties":{"gitter_id":"Czech1_1"},"geometry":{"type":"Polygon", "coordinates":[[[12.296184,49.009607], [12.295766,49.000617], [12.295349,48.991628], [12.294931,48.982638], [12.294514,48.973649], [12.280864,48.973928], [12.28045,48.964938], [12.280035,48.955948], [12.279621,48.946959], [12.279207,48.937969], [12.278793,48.928979], [12.27838,48.919989], [12.264745,48.920266], [12.251109,48.920542], [12.250701,48.911552], [12.237068,48.911826], [12.236662,48.902836], [12.223031,48.903108], [12.222628,48.894118], [12.209,48.894388], [12.195371,48.894657], [12.181742,48.894924], [12.168113,48.89519], [12.154485,48.895453], [12.140855,48.895716], [12.127226,48.895976], [12.113597,48.896235], [12.099967,48.896492], [12.100348,48.905483], [12.086716,48.905738], [12.087095,48.914729], [12.07346,48.914983], [12.073837,48.923974], [12.060199,48.924226], [12.046562,48.924477], [12.046933,48.933468], [12.033293,48.933717], [12.033663,48.942708], [12.02002,48.942955], [12.020387,48.951946], [12.006742,48.952192], [12.007107,48.961183], [12.007471,48.970174], [12.021122,48.969928], [12.021489,48.978919], [12.021857,48.987909], [12.008202,48.988155], [11.994546,48.9884], [11.994909,48.997391], [11.995272,49.006381], [11.995635,49.015372], [12.009298,49.015128], [12.009664,49.024118], [12.023329,49.023872], [12.023697,49.032863], [12.024066,49.041853], [12.037736,49.041605], [12.038107,49.050596], [12.038479,49.059586], [12.052153,49.059336], [12.052527,49.068327], [12.066205,49.068075], [12.066581,49.077065], [12.080261,49.076812], [12.09394,49.076557], [12.094322,49.085547], [12.108004,49.085291], [12.121685,49.085032], [12.121298,49.076042], [12.134977,49.075782], [12.135367,49.084772], [12.149048,49.084511], [12.162729,49.084247], [12.17641,49.083982], [12.176013,49.074993], [12.175617,49.066003], [12.189293,49.065736], [12.188894,49.056746], [12.202567,49.056478], [12.21624,49.056208], [12.215836,49.047219], [12.229507,49.046947], [12.243177,49.046674], [12.242768,49.037684], [12.24236,49.028695], [12.256025,49.02842], [12.255615,49.01943], [12.269277,49.019154], [12.28294,49.018876], [12.282524,49.009887], [12.296184,49.009607]], [[12.214223,49.011259], [12.200562,49.011529], [12.186901,49.011797], [12.17324,49.012063], [12.173636,49.021053], [12.159972,49.021318], [12.146308,49.021581], [12.146699,49.030571], [12.14709,49.039561], [12.133421,49.039822], [12.133033,49.030832], [12.119366,49.031092], [12.119752,49.040082], [12.106083,49.04034], [12.1057,49.03135], [12.092033,49.031606], [12.091652,49.022616], [12.077988,49.02287], [12.077609,49.01388], [12.063947,49.014133], [12.063572,49.005142], [12.063196,48.996152], [12.062821,48.987161], [12.062446,48.978171], [12.076098,48.977918], [12.08975,48.977664], [12.08937,48.968673], [12.10302,48.968417], [12.102638,48.959427], [12.102256,48.950436], [12.1159,48.950179], [12.129544,48.949919], [12.129157,48.940929], [12.142799,48.940668], [12.14241,48.931678], [12.156049,48.931415], [12.169688,48.931151], [12.170082,48.940142], [12.183723,48.939876], [12.197364,48.939608], [12.197763,48.948599], [12.211406,48.948329], [12.211808,48.957319], [12.21221,48.96631], [12.212612,48.9753], [12.213015,48.98429], [12.213417,48.99328], [12.21382,49.002269], [12.214223,49.011259]]]}},{"type":"Feature","properties":{"gitter_id":"Czech1_0"},"geometry":{"type":"Polygon", "coordinates":[[[12.214223,49.011259], [12.21382,49.002269], [12.213417,48.99328], [12.213015,48.98429], [12.212612,48.9753], [12.21221,48.96631], [12.211808,48.957319], [12.211406,48.948329], [12.197763,48.948599], [12.197364,48.939608], [12.183723,48.939876], [12.170082,48.940142], [12.169688,48.931151], [12.156049,48.931415], [12.14241,48.931678], [12.142799,48.940668], [12.129157,48.940929], [12.129544,48.949919], [12.1159,48.950179], [12.102256,48.950436], [12.102638,48.959427], [12.10302,48.968417], [12.08937,48.968673], [12.08975,48.977664], [12.076098,48.977918], [12.062446,48.978171], [12.062821,48.987161], [12.063196,48.996152], [12.063572,49.005142], [12.063947,49.014133], [12.077609,49.01388], [12.077988,49.02287], [12.091652,49.022616], [12.092033,49.031606], [12.1057,49.03135], [12.106083,49.04034], [12.119752,49.040082], [12.119366,49.031092], [12.133033,49.030832], [12.133421,49.039822], [12.14709,49.039561], [12.146699,49.030571], [12.146308,49.021581], [12.159972,49.021318], [12.173636,49.021053], [12.17324,49.012063], [12.186901,49.011797], [12.200562,49.011529], [12.214223,49.011259]]]}}]}